OBJECT_NAME,OBJECT_ID,EPOCH,MEAN_MOTION,ECCENTRICITY,INCLINATION,RA_OF_ASC_NODE,ARG_OF_PERICENTER,MEAN_ANOMALY,EPHEMERIS_TYPE,CLASSIFICATION_TYPE,NORAD_CAT_ID,ELEMENT_SET_NO,REV_AT_EPOCH,BSTAR,MEAN_MOTION_DOT,MEAN_MOTION_DDOT
KUZGTU 1 (RS47S),2023-091AV,2026-07-22T22:24:23.469408,15.30595187,.00093174,97.5044,268.7925,337.0314,23.0509,0,U,57217,999,16984,.46223511E-3,.13621E-3,0
SONATE-2,2024-043Q,2026-07-22T16:09:36.582912,15.61310984,.00064285,97.5559,356.3266,82.0201,278.1785,0,U,59112,999,13342,.54727745E-3,.46589E-3,0
MESAT1,2024-125G,2026-07-22T20:14:46.060224,15.67248585,.00104019,97.2243,62.2364,89.0181,271.2272,0,U,60209,999,11514,.77192588E-3,.83585E-3,0
OOV-CUBE (TUBSAT-30),2024-128F,2026-07-22T06:04:30.835488,15.02894414,.0040191,61.9942,103.2884,141.6330,218.7632,0,U,60240,999,11138,.12811368E-3,.1541E-4,0
COLIBRI-S (RS67S),2024-199M,2026-07-22T22:16:04.617408,15.49108396,.00096664,97.2942,78.1342,137.6537,222.5462,0,U,61746,999,14294,.50308746E-3,.27337E-3,0
HORS 3 (RS81S),2024-199U,2026-07-22T21:43:46.504704,15.57361731,.0007911,97.2925,80.5116,133.7412,226.4500,0,U,61753,999,14311,.64435512E-3,.47289E-3,0
HORS 4 (RS82S),2024-199V,2026-07-22T22:33:03.181824,15.63050444,.00075975,97.2863,82.0037,127.7925,232.4023,0,U,61754,999,14322,.78525421E-3,.718E-3,0
SIT-2086,2024-199AF,2026-07-22T22:14:56.129856,15.55475165,.00086761,97.2882,80.8860,122.4247,237.7848,0,U,61764,999,13998,.66824457E-3,.45746E-3,0
HYPERVIEW 1G (RS66S),2024-199AP,2026-07-22T19:24:53.474400,15.88492737,.0007802,97.2772,85.6287,135.9324,224.2572,0,U,61772,999,14030,.83388513E-3,.229899E-2,.20877291E-4
ALTAIR (RS65S),2024-199AW,2026-07-22T21:52:29.394912,15.37617062,.00129234,97.2987,73.0335,168.6832,191.4706,0,U,61779,999,14260,.25952406E-3,.9527E-4,0
ASRTU-1 (AO-123),2024-199AY,2026-07-22T20:48:44.389152,15.36134904,.00138593,97.2959,72.2193,172.6541,187.4909,0,U,61781,999,13940,.23663876E-3,.8276E-4,0
SAMSAT-IONOSPHERE (RS75S),2024-199BB,2026-07-22T22:26:00.741120,15.60728421,.00099602,97.2887,80.7355,136.8169,223.3872,0,U,61784,999,14313,.76517782E-3,.63967E-3,0
RTU MIREA 1 (RS51S),2024-199BC,2026-07-22T22:25:13.290240,15.65079382,.00099181,97.2871,81.7735,132.7426,227.4670,0,U,61785,999,14005,.84276922E-3,.83663E-3,0
TEVEL2-4,2025-052D,2026-07-22T04:24:32.969952,15.35744990,.00028764,97.3852,99.6543,37.6826,322.4619,0,U,63213,999,7548,.6152178E-3,.21346E-3,0
TEVEL2-5,2025-052E,2026-07-22T15:56:52.594368,15.35573440,.00028383,97.3850,100.0736,39.0942,321.0506,0,U,63214,999,7555,.60328887E-3,.20814E-3,0
TEVEL2-6,2025-052F,2026-07-22T16:15:48.513312,15.35538157,.0002905,97.3857,100.0719,41.4403,318.7060,0,U,63215,999,7555,.59913706E-3,.20647E-3,0
TEVEL2-1,2025-052H,2026-07-22T04:45:06.514848,15.34943207,.00036051,97.3828,99.1724,45.0225,315.1310,0,U,63217,999,7546,.59832333E-3,.20232E-3,0
TEVEL2-3,2025-052J,2026-07-22T04:35:25.291680,15.35007108,.00035371,97.3841,99.1918,48.5551,311.5996,0,U,63218,999,7546,.60877449E-3,.20629E-3,0
TEVEL2-2,2025-052K,2026-07-22T06:19:05.593152,15.34957239,.00036751,97.3827,99.2408,45.1461,315.0081,0,U,63219,999,7547,.60329009E-3,.2041E-3,0
OTP-2,2025-052AB,2026-07-22T22:34:25.146048,15.24418536,.00077258,97.3822,95.8396,49.6879,310.5032,0,U,63235,999,7531,.35537359E-3,.8654E-4,0
TEVEL2-9,2025-052AD,2026-07-21T05:49:15.661632,15.32853308,.00070834,97.3890,97.5180,39.6084,320.5675,0,U,63237,999,7524,.41132929E-3,.12991E-3,0
TEVEL2-7,2025-052AE,2026-07-22T15:52:26.480640,15.32583477,.0007024,97.3893,98.8358,35.8352,324.3360,0,U,63238,999,7545,.57796525E-3,.18142E-3,0
TEVEL2-8,2025-052AF,2026-07-21T16:34:29.350272,15.32536130,.00072056,97.3893,97.8424,39.3565,320.8199,0,U,63239,999,7530,.50898615E-3,.1594E-3,0
INNOSAT 16 (RS92S7),2025-155C,2026-07-22T21:05:40.809984,15.25800258,.00122251,97.4587,170.9070,65.5320,294.7192,0,U,64878,999,8611,.24066643E-3,.609E-4,0
GEOSCAN 6 (RS92S6),2025-155D,2026-07-22T21:06:53.310816,15.30768127,.0009547,97.4576,172.5909,60.4862,299.7330,0,U,64879,999,8622,.41214588E-3,.12201E-3,0
GEOSCAN 1 (RS92S1),2025-155E,2026-07-22T20:49:18.048000,15.31424651,.00094875,97.4573,172.7592,60.9316,299.2875,0,U,64880,999,8623,.45534623E-3,.13769E-3,0
239ALFEROV (RS61S),2025-155F,2026-07-22T21:56:22.248096,15.33836859,.00091758,97.4571,173.4934,60.9217,299.2943,0,U,64881,999,8628,.54304898E-3,.17735E-3,0
GEOSCAN 2 (RS92S2),2025-155Q,2026-07-22T22:05:29.809824,15.31683237,.00084877,97.4571,172.9788,50.9051,309.2944,0,U,64890,999,8625,.4379525E-3,.13343E-3,0
GEOSCAN 5 (RS92S5),2025-155R,2026-07-22T21:30:09.115776,15.34137946,.00082659,97.4564,173.6258,66.2668,293.9441,0,U,64891,999,8629,.50488385E-3,.16635E-3,0
GEOSCAN 4 (RS92S4),2025-155S,2026-07-22T21:01:56.759232,15.34309761,.00081317,97.4569,173.6653,66.7319,293.4779,0,U,64892,999,8629,.54238573E-3,.17976E-3,0
