KUZGTU 1 (RS47S)        
1 57217U 23091AV  26203.93360497  .00013621  00000+0  46224-3 0  9994
2 57217  97.5044 268.7925 0009317 337.0314  23.0509 15.30595187169844
SONATE-2                
1 59112U 24043Q   26203.67334008  .00046589  00000+0  54728-3 0  9995
2 59112  97.5559 356.3266 0006428  82.0201 278.1785 15.61310984133423
MESAT1                  
1 60209U 24125G   26203.84358866  .00083585  00000+0  77193-3 0  9990
2 60209  97.2243  62.2364 0010401  89.0181 271.2272 15.67248585115148
OOV-CUBE (TUBSAT-30)    
1 60240U 24128F   26203.25313467  .00001541  00000+0  12811-3 0  9999
2 60240  61.9942 103.2884 0040191 141.6330 218.7632 15.02894414111385
COLIBRI-S (RS67S)       
1 61746U 24199M   26203.92783122  .00027337  00000+0  50309-3 0  9997
2 61746  97.2942  78.1342 0009666 137.6537 222.5462 15.49108396142942
HORS 3 (RS81S)          
1 61753U 24199U   26203.90539936  .00047289  00000+0  64436-3 0  9999
2 61753  97.2925  80.5116 0007911 133.7412 226.4500 15.57361731143116
HORS 4 (RS82S)          
1 61754U 24199V   26203.93962016  .00071800  00000+0  78525-3 0  9992
2 61754  97.2863  82.0037 0007597 127.7925 232.4023 15.63050444143221
SIT-2086                
1 61764U 24199AF  26203.92703854  .00045746  00000+0  66824-3 0  9994
2 61764  97.2882  80.8860 0008676 122.4247 237.7848 15.55475165139984
HYPERVIEW 1G (RS66S)    
1 61772U 24199AP  26203.80895225  .00229899  20877-4  83389-3 0  9991
2 61772  97.2772  85.6287 0007802 135.9324 224.2572 15.88492737140305
ALTAIR (RS65S)          
1 61779U 24199AW  26203.91145133  .00009527  00000+0  25952-3 0  9993
2 61779  97.2987  73.0335 0012923 168.6832 191.4706 15.37617062142605
ASRTU-1 (AO-123)        
1 61781U 24199AY  26203.86718043  .00008276  00000+0  23664-3 0  9994
2 61781  97.2959  72.2193 0013859 172.6541 187.4909 15.36134904139403
SAMSAT-IONOSPHERE (RS7*)
1 61784U 24199BB  26203.93473080  .00063967  00000+0  76518-3 0  9998
2 61784  97.2887  80.7355 0009960 136.8169 223.3872 15.60728421143130
RTU MIREA 1 (RS51S)     
1 61785U 24199BC  26203.93418160  .00083663  00000+0  84277-3 0  9993
2 61785  97.2871  81.7735 0009918 132.7426 227.4670 15.65079382140050
TEVEL2-4                
1 63213U 25052D   26203.18371493  .00021346  00000+0  61522-3 0  9992
2 63213  97.3852  99.6543 0002876  37.6826 322.4619 15.35744990 75480
TEVEL2-5                
1 63214U 25052E   26203.66449762  .00020814  00000+0  60329-3 0  9994
2 63214  97.3850 100.0736 0002838  39.0942 321.0506 15.35573440 75551
TEVEL2-6                
1 63215U 25052F   26203.67764483  .00020647  00000+0  59914-3 0  9998
2 63215  97.3857 100.0719 0002905  41.4403 318.7060 15.35538157 75558
TEVEL2-1                
1 63217U 25052H   26203.19799207  .00020232  00000+0  59832-3 0  9998
2 63217  97.3828  99.1724 0003605  45.0225 315.1310 15.34943207 75466
TEVEL2-3                
1 63218U 25052J   26203.19126495  .00020629  00000+0  60877-3 0  9993
2 63218  97.3841  99.1918 0003537  48.5551 311.5996 15.35007108 75463
TEVEL2-2                
1 63219U 25052K   26203.26325918  .00020410  00000+0  60329-3 0  9993
2 63219  97.3827  99.2408 0003675  45.1461 315.0081 15.34957239 75472
OTP-2                   
1 63235U 25052AB  26203.94056882  .00008654  00000+0  35537-3 0  9996
2 63235  97.3822  95.8396 0007725  49.6879 310.5032 15.24418536 75315
TEVEL2-9                
1 63237U 25052AD  26202.24254238  .00012991  00000+0  41133-3 0  9993
2 63237  97.3890  97.5180 0007083  39.6084 320.5675 15.32853308 75241
TEVEL2-7                
1 63238U 25052AE  26203.66141760  .00018142  00000+0  57797-3 0  9993
2 63238  97.3893  98.8358 0007024  35.8352 324.3360 15.32583477 75450
TEVEL2-8                
1 63239U 25052AF  26202.69061748  .00015940  00000+0  50899-3 0  9992
2 63239  97.3893  97.8424 0007205  39.3565 320.8199 15.32536130 75309
INNOSAT 16 (RS92S7)     
1 64878U 25155C   26203.87894456  .00006090  00000+0  24067-3 0  9991
2 64878  97.4587 170.9070 0012225  65.5320 294.7192 15.25800258 86118
GEOSCAN 6 (RS92S6)      
1 64879U 25155D   26203.87978369  .00012201  00000+0  41215-3 0  9993
2 64879  97.4576 172.5909 0009547  60.4862 299.7330 15.30768127 86229
GEOSCAN 1 (RS92S1)      
1 64880U 25155E   26203.86757000  .00013769  00000+0  45535-3 0  9990
2 64880  97.4573 172.7592 0009487  60.9316 299.2875 15.31424651 86232
239ALFEROV (RS61S)      
1 64881U 25155F   26203.91414639  .00017735  00000+0  54305-3 0  9997
2 64881  97.4571 173.4934 0009175  60.9217 299.2943 15.33836859 86283
GEOSCAN 2 (RS92S2)      
1 64890U 25155Q   26203.92048391  .00013343  00000+0  43795-3 0  9998
2 64890  97.4571 172.9788 0008487  50.9051 309.2944 15.31683237 86252
GEOSCAN 5 (RS92S5)      
1 64891U 25155R   26203.89593884  .00016635  00000+0  50488-3 0  9991
2 64891  97.4564 173.6258 0008265  66.2668 293.9441 15.34137946 86292
GEOSCAN 4 (RS92S4)      
1 64892U 25155S   26203.87635138  .00017976  00000+0  54239-3 0  9996
2 64892  97.4569 173.6653 0008131  66.7319 293.4779 15.34309761 86292
